start=new Date('2022-04-24T00:00:00.000Z').valueOf();
sats=[{"REV_AT_EPOCH":"358","SEMIMAJOR_AXIS":"6955.214","OBJECT_ID":"2021-082AN","NORAD_CAT_ID":"49166","LAUNCH_DATE":"2021-09-14","RA_OF_ASC_NODE":"244.1519","DECAY_DATE":null,"CLASSIFICATION_TYPE":"U","BSTAR":"-0.00106900000000","MEAN_MOTION_DDOT":"0.0000000000000","CENTER_NAME":"EARTH","SITE":"AFWTR","ECCENTRICITY":"0.00031850","GP_ID":"201882644","COUNTRY_CODE":"US","APOAPSIS":"579.294","OBJECT_NAME":"STARLINK-3089","MEAN_ELEMENT_THEORY":"SGP4","TLE_LINE2":"2 49166  70.0003 244.1519 0003185 269.9048  31.8458 14.96707763  3584","FILE":"3412883","ELEMENT_SET_NO":"999","OBJECT_TYPE":"PAYLOAD","EPHEMERIS_TYPE":"0","PERIAPSIS":"574.864","RCS_SIZE":"LARGE","PERIOD":"96.211","ARG_OF_PERICENTER":"269.9048","MEAN_ANOMALY":"31.8458","MEAN_MOTION_DOT":"-0.00012303","INCLINATION":"70.0003","TIME_SYSTEM":"UTC","MEAN_MOTION":"14.96707763","EPOCH":"2022-04-23T14:00:01.000224","REF_FRAME":"TEME","TLE_LINE1":"1 49166U 21082AN  22113.58334491 -.00012303  00000-0 -10690-2 0  9994"},{"APOAPSIS":"574.218","COUNTRY_CODE":"US","MEAN_ELEMENT_THEORY":"SGP4","OBJECT_NAME":"STARLINK-3054","TLE_LINE2":"2 49167  70.0007 264.1096 0003094 274.8902 251.8271 14.98326933 35124","ECCENTRICITY":"0.00030940","GP_ID":"201886941","CENTER_NAME":"EARTH","SITE":"AFWTR","DECAY_DATE":null,"RA_OF_ASC_NODE":"264.1096","BSTAR":"-0.00057194000000","CLASSIFICATION_TYPE":"U","MEAN_MOTION_DDOT":"0.0000000000000","OBJECT_ID":"2021-082AP","NORAD_CAT_ID":"49167","LAUNCH_DATE":"2021-09-14","REV_AT_EPOCH":"3512","SEMIMAJOR_AXIS":"6950.202","REF_FRAME":"TEME","TLE_LINE1":"1 49167U 21082AP  22113.91667824 -.00006910  00000-0 -57194-3 0  9999","EPOCH":"2022-04-23T22:00:00.999936","MEAN_MOTION":"14.98326933","INCLINATION":"70.0007","TIME_SYSTEM":"UTC","ARG_OF_PERICENTER":"274.8902","MEAN_MOTION_DOT":"-0.00006910","MEAN_ANOMALY":"251.8271","RCS_SIZE":"LARGE","PERIOD":"96.107","EPHEMERIS_TYPE":"0","PERIAPSIS":"569.917","FILE":"3412984","ELEMENT_SET_NO":"999","OBJECT_TYPE":"PAYLOAD"},{"GP_ID":"201883145","ECCENTRICITY":"0.00033080","APOAPSIS":"579.321","COUNTRY_CODE":"US","TLE_LINE2":"2 49168  70.0009 244.1541 0003308 268.6632 111.7558 14.96726883  3593","MEAN_ELEMENT_THEORY":"SGP4","OBJECT_NAME":"STARLINK-3101","REV_AT_EPOCH":"359","SEMIMAJOR_AXIS":"6955.155","OBJECT_ID":"2021-082AQ","LAUNCH_DATE":"2021-09-14","NORAD_CAT_ID":"49168","CLASSIFICATION_TYPE":"U","BSTAR":"-0.00143340000000","RA_OF_ASC_NODE":"244.1541","DECAY_DATE":null,"MEAN_MOTION_DDOT":"0.0000000000000","CENTER_NAME":"EARTH","SITE":"AFWTR","INCLINATION":"70.0009","TIME_SYSTEM":"UTC","MEAN_MOTION":"14.96726883","EPOCH":"2022-04-23T14:00:01.000224","REF_FRAME":"TEME","TLE_LINE1":"1 49168U 21082AQ  22113.58334491 -.00016464  00000-0 -14334-2 0  9997","FILE":"3412883","ELEMENT_SET_NO":"999","OBJECT_TYPE":"PAYLOAD","PERIAPSIS":"574.719","EPHEMERIS_TYPE":"0","RCS_SIZE":"LARGE","PERIOD":"96.210","ARG_OF_PERICENTER":"268.6632","MEAN_ANOMALY":"111.7558","MEAN_MOTION_DOT":"-0.00016464"},{"TLE_LINE2":"2 49169  70.0013 244.1504 0003353 270.0132  84.2376 14.96720637  3548","OBJECT_NAME":"STARLINK-3046","MEAN_ELEMENT_THEORY":"SGP4","APOAPSIS":"579.371","COUNTRY_CODE":"US","ECCENTRICITY":"0.00033530","GP_ID":"201883895","MEAN_MOTION_DDOT":"0.0000000000000","BSTAR":"-0.00107750000000","CLASSIFICATION_TYPE":"U","RA_OF_ASC_NODE":"244.1504","DECAY_DATE":null,"SITE":"AFWTR","CENTER_NAME":"EARTH","SEMIMAJOR_AXIS":"6955.174","REV_AT_EPOCH":"354","NORAD_CAT_ID":"49169","LAUNCH_DATE":"2021-09-14","OBJECT_ID":"2021-082AR","EPOCH":"2022-04-23T14:00:01.000224","TLE_LINE1":"1 49169U 21082AR  22113.58334491 -.00012404  00000-0 -10775-2 0  9993","REF_FRAME":"TEME","TIME_SYSTEM":"UTC","INCLINATION":"70.0013","MEAN_MOTION":"14.96720637","PERIOD":"96.210","RCS_SIZE":"LARGE","MEAN_MOTION_DOT":"-0.00012404","MEAN_ANOMALY":"84.2376","ARG_OF_PERICENTER":"270.0132","OBJECT_TYPE":"PAYLOAD","FILE":"3412883","ELEMENT_SET_NO":"999","PERIAPSIS":"574.707","EPHEMERIS_TYPE":"0"},{"MEAN_ANOMALY":"25.6983","MEAN_MOTION_DOT":"0.00012303","ARG_OF_PERICENTER":"280.6141","PERIOD":"96.107","RCS_SIZE":"LARGE","PERIAPSIS":"569.905","EPHEMERIS_TYPE":"0","OBJECT_TYPE":"PAYLOAD","FILE":"3413034","ELEMENT_SET_NO":"999","TLE_LINE1":"1 49170U 21082AS  22113.91667824  .00012303  00000-0  10370-2 0  9998","REF_FRAME":"TEME","EPOCH":"2022-04-23T22:00:00.999936","MEAN_MOTION":"14.98333511","TIME_SYSTEM":"UTC","INCLINATION":"69.9998","SITE":"AFWTR","CENTER_NAME":"EARTH","MEAN_MOTION_DDOT":"0.0000000000000","CLASSIFICATION_TYPE":"U","BSTAR":"0.00103700000000","RA_OF_ASC_NODE":"264.1095","DECAY_DATE":null,"LAUNCH_DATE":"2021-09-14","NORAD_CAT_ID":"49170","OBJECT_ID":"2021-082AS","SEMIMAJOR_AXIS":"6950.182","REV_AT_EPOCH":"3390","TLE_LINE2":"2 49170  69.9998 264.1095 0003082 280.6141  25.6983 14.98333511 33901","OBJECT_NAME":"STARLINK-3074","MEAN_ELEMENT_THEORY":"SGP4","APOAPSIS":"574.189","COUNTRY_CODE":"US","GP_ID":"201888480","ECCENTRICITY":"0.00030820"},{"CENTER_NAME":"EARTH","SITE":"AFWTR","DECAY_DATE":null,"RA_OF_ASC_NODE":"264.1144","BSTAR":"-0.00052319000000","CLASSIFICATION_TYPE":"U","MEAN_MOTION_DDOT":"0.0000000000000","OBJECT_ID":"2021-082AT","LAUNCH_DATE":"2021-09-14","NORAD_CAT_ID":"49171","REV_AT_EPOCH":"3506","SEMIMAJOR_AXIS":"6950.183","COUNTRY_CODE":"US","APOAPSIS":"574.297","OBJECT_NAME":"STARLINK-3107","MEAN_ELEMENT_THEORY":"SGP4","TLE_LINE2":"2 49171  70.0001 264.1144 0003236 282.5923 280.8872 14.98333097 35065","GP_ID":"201888242","ECCENTRICITY":"0.00032360","ARG_OF_PERICENTER":"282.5923","MEAN_ANOMALY":"280.8872","MEAN_MOTION_DOT":"-0.00006331","RCS_SIZE":"LARGE","PERIOD":"96.107","EPHEMERIS_TYPE":"0","PERIAPSIS":"569.799","FILE":"3413043","ELEMENT_SET_NO":"999","OBJECT_TYPE":"PAYLOAD","REF_FRAME":"TEME","TLE_LINE1":"1 49171U 21082AT  22113.91667824 -.00006331  00000-0 -52319-3 0  9995","EPOCH":"2022-04-23T22:00:00.999936","MEAN_MOTION":"14.98333097","INCLINATION":"70.0001","TIME_SYSTEM":"UTC"},{"MEAN_MOTION":"14.96705628","TIME_SYSTEM":"UTC","INCLINATION":"69.9994","TLE_LINE1":"1 49172U 21082AU  22113.58334491 -.00015978  00000-0 -13915-2 0  9995","REF_FRAME":"TEME","EPOCH":"2022-04-23T14:00:01.000224","EPHEMERIS_TYPE":"0","PERIAPSIS":"574.793","OBJECT_TYPE":"PAYLOAD","ELEMENT_SET_NO":"999","FILE":"3412883","MEAN_ANOMALY":"238.3320","MEAN_MOTION_DOT":"-0.00015978","ARG_OF_PERICENTER":"276.5606","PERIOD":"96.211","RCS_SIZE":"LARGE","GP_ID":"201883645","ECCENTRICITY":"0.00032970","MEAN_ELEMENT_THEORY":"SGP4","OBJECT_NAME":"STARLINK-3091","TLE_LINE2":"2 49172  69.9994 244.1666 0003297 276.5606 238.3320 14.96705628  3599","COUNTRY_CODE":"US","APOAPSIS":"579.379","NORAD_CAT_ID":"49172","LAUNCH_DATE":"2021-09-14","OBJECT_ID":"2021-082AU","SEMIMAJOR_AXIS":"6955.221","REV_AT_EPOCH":"359","SITE":"AFWTR","CENTER_NAME":"EARTH","MEAN_MOTION_DDOT":"0.0000000000000","RA_OF_ASC_NODE":"244.1666","DECAY_DATE":null,"BSTAR":"-0.00139150000000","CLASSIFICATION_TYPE":"U"},{"MEAN_MOTION":"14.96747706","INCLINATION":"70.0001","TIME_SYSTEM":"UTC","REF_FRAME":"TEME","TLE_LINE1":"1 49173U 21082AV  22113.91667824 -.00065551  00000-0 -57680-2 0  9991","EPOCH":"2022-04-23T22:00:00.999936","PERIAPSIS":"574.651","EPHEMERIS_TYPE":"0","ELEMENT_SET_NO":"999","FILE":"3413082","OBJECT_TYPE":"PAYLOAD","ARG_OF_PERICENTER":"280.4279","MEAN_MOTION_DOT":"-0.00065551","MEAN_ANOMALY":"115.6556","RCS_SIZE":"LARGE","PERIOD":"96.209","GP_ID":"201889195","ECCENTRICITY":"0.00033130","COUNTRY_CODE":"US","APOAPSIS":"579.260","TLE_LINE2":"2 49173  70.0001 243.3197 0003313 280.4279 115.6556 14.96747706 34428","MEAN_ELEMENT_THEORY":"SGP4","OBJECT_NAME":"STARLINK-3045","OBJECT_ID":"2021-082AV","LAUNCH_DATE":"2021-09-14","NORAD_CAT_ID":"49173","REV_AT_EPOCH":"3442","SEMIMAJOR_AXIS":"6955.090","CENTER_NAME":"EARTH","SITE":"AFWTR","BSTAR":"-0.00576800000000","CLASSIFICATION_TYPE":"U","DECAY_DATE":null,"RA_OF_ASC_NODE":"243.3197","MEAN_MOTION_DDOT":"0.0000000000000"},{"OBJECT_TYPE":"PAYLOAD","ELEMENT_SET_NO":"999","FILE":"3412883","PERIAPSIS":"574.846","EPHEMERIS_TYPE":"0","PERIOD":"96.210","RCS_SIZE":"LARGE","MEAN_ANOMALY":"149.6365","MEAN_MOTION_DOT":"-0.00014108","ARG_OF_PERICENTER":"268.3197","TIME_SYSTEM":"UTC","INCLINATION":"70.0005","MEAN_MOTION":"14.96721521","EPOCH":"2022-04-23T14:00:01.000224","TLE_LINE1":"1 49174U 21082AW  22113.58334491 -.00014108  00000-0 -12269-2 0  9992","REF_FRAME":"TEME","SEMIMAJOR_AXIS":"6955.171","REV_AT_EPOCH":"355","LAUNCH_DATE":"2021-09-14","NORAD_CAT_ID":"49174","OBJECT_ID":"2021-082AW","MEAN_MOTION_DDOT":"0.0000000000000","BSTAR":"-0.00122690000000","CLASSIFICATION_TYPE":"U","RA_OF_ASC_NODE":"244.1511","DECAY_DATE":null,"SITE":"AFWTR","CENTER_NAME":"EARTH","ECCENTRICITY":"0.00031500","GP_ID":"201882645","TLE_LINE2":"2 49174  70.0005 244.1511 0003150 268.3197 149.6365 14.96721521  3557","OBJECT_NAME":"STARLINK-3047","MEAN_ELEMENT_THEORY":"SGP4","COUNTRY_CODE":"US","APOAPSIS":"579.227"},{"PERIOD":"96.210","RCS_SIZE":"LARGE","MEAN_MOTION_DOT":"-0.00007938","MEAN_ANOMALY":"342.3290","ARG_OF_PERICENTER":"277.7166","OBJECT_TYPE":"PAYLOAD","FILE":"3412883","ELEMENT_SET_NO":"999","EPHEMERIS_TYPE":"0","PERIAPSIS":"574.842","EPOCH":"2022-04-23T14:00:01.000224","TLE_LINE1":"1 49175U 21082AX  22113.58334491 -.00007938  00000-0 -68611-3 0  9999","REF_FRAME":"TEME","TIME_SYSTEM":"UTC","INCLINATION":"70.0012","MEAN_MOTION":"14.96724286","MEAN_MOTION_DDOT":"0.0000000000000","RA_OF_ASC_NODE":"244.1557","DECAY_DATE":null,"BSTAR":"-0.00068611000000","CLASSIFICATION_TYPE":"U","SITE":"AFWTR","CENTER_NAME":"EARTH","SEMIMAJOR_AXIS":"6955.163","REV_AT_EPOCH":"354","NORAD_CAT_ID":"49175","LAUNCH_DATE":"2021-09-14","OBJECT_ID":"2021-082AX","OBJECT_NAME":"STARLINK-3087","MEAN_ELEMENT_THEORY":"SGP4","TLE_LINE2":"2 49175  70.0012 244.1557 0003143 277.7166 342.3290 14.96724286  3547","COUNTRY_CODE":"US","APOAPSIS":"579.214","GP_ID":"201882895","ECCENTRICITY":"0.00031430"}];
